ONEWEB-0018             
1 45434U 20020L   26198.20239081 -.00000397  00000+0 -11551-2 0  9990
2 45434  87.8886  15.0893 0001676 102.8689 257.2626 13.11415176306567
ONEWEB-0083             
1 45435U 20020M   26197.96361360 -.00000015  00000+0 -77479-4 0  9999
2 45435  87.8892  15.1319 0001891  92.1568 267.9777 13.11415143306575
ONEWEB-0095             
1 45436U 20020N   26197.95514101  .00000355  00000+0  96573-3 0  9992
2 45436  87.8892  15.1426 0002279  76.0919 284.0462 13.11414618306574
ONEWEB-0092             
1 45437U 20020P   26198.21455059 -.00000631  00000+0 -18163-2 0  9996
2 45437  87.8891  15.0819 0001732  96.5758 263.5567 13.11413779306722
ONEWEB-0085             
1 45438U 20020Q   26197.50555499 -.00000051  00000+0 -17916-3 0  9999
2 45438  87.8885  15.2282 0001869  89.8606 270.2736 13.11415533306510
ONEWEB-0096             
1 45439U 20020R   26197.96516801 -.00000059  00000+0 -20120-3 0  9993
2 45439  87.8891  15.1343 0001930  88.5405 271.5944 13.11414582306560
ONEWEB-0037             
1 45440U 20020S   26197.53365254 -.00000280  00000+0 -82467-3 0  9990
2 45440  87.8903  15.1936 0001978  86.7245 273.4109 13.11416732306549
ONEWEB-0042             
1 45441U 20020T   26197.87857096  .00000363  00000+0  98868-3 0  9990
2 45441  87.8892  15.1481 0001751  90.2278 269.9051 13.11415827306558
ONEWEB-0098             
1 45442U 20020U   26198.25595256  .00000463  00000+0  12718-2 0  9991
2 45442  87.8890  15.0817 0001918  93.1148 267.0199 13.11414204306585
ONEWEB-0055             
1 45443U 20020V   26198.00573251  .00000229  00000+0  61071-3 0  9993
2 45443  87.8893  15.1306 0001924  91.8363 268.2985 13.11418578306522
ONEWEB-0093             
1 45444U 20020W   26197.53542794 -.00000287  00000+0 -85298-3 0  9992
2 45444  87.8895  15.2212 0001522  89.9122 270.2181 13.10895514306526
ONEWEB-0029             
1 45445U 20020X   26198.24168921  .00000359  00000+0  97733-3 0  9993
2 45445  87.8885  15.0836 0001611  93.2628 266.8685 13.11416769306593
ONEWEB-0068             
1 45446U 20020Y   26198.21426145 -.00007947  00000+0 -22466-1 0  9997
2 45446  87.8893  15.0860 0001777  90.2107 269.9224 13.11454179306536
ONEWEB-0046             
1 45447U 20020Z   26198.20591671 -.00000509  00000+0 -14727-2 0  9993
2 45447  87.8883  15.0915 0001635  84.5027 275.6288 13.11416291306545
ONEWEB-0063             
1 45448U 20020AA  26198.00600626  .00000238  00000+0  63685-3 0  9998
2 45448  87.8895  15.1329 0001904  82.0436 278.0909 13.11418355306602
ONEWEB-0019             
1 45449U 20020AB  26197.96842484 -.00000245  00000+0 -72727-3 0  9990
2 45449  87.8887  15.1247 0001987  96.3880 263.7474 13.11414583306444
